[{"OBJECT_NAME":"STARLINK-2756","OBJECT_ID":"2021-044AX","EPOCH":"2026-03-09T06:56:39.673248","MEAN_MOTION":15.30200644,"ECCENTRICITY":0.00014007,"INCLINATION":53.1602,"RA_OF_ASC_NODE":66.9949,"ARG_OF_PERICENTER":93.6092,"MEAN_ANOMALY":266.5069,"EPHEMERIS_TYPE":0,"CLASSIFICATION_TYPE":"U","NORAD_CAT_ID":48683,"ELEMENT_SET_NO":999,"REV_AT_EPOCH":26444,"BSTAR":0.00017492895,"MEAN_MOTION_DOT":4.825e-5,"MEAN_MOTION_DDOT":0},{"OBJECT_NAME":"FENGYUN 1C DEB","OBJECT_ID":"1999-025AMU","EPOCH":"2026-03-09T13:46:16.276800","MEAN_MOTION":15.41895871,"ECCENTRICITY":0.0043781,"INCLINATION":98.2926,"RA_OF_ASC_NODE":203.1751,"ARG_OF_PERICENTER":231.7233,"MEAN_ANOMALY":128.007,"EPHEMERIS_TYPE":0,"CLASSIFICATION_TYPE":"U","NORAD_CAT_ID":30613,"ELEMENT_SET_NO":999,"REV_AT_EPOCH":717,"BSTAR":0.0052699,"MEAN_MOTION_DOT":0.00238104,"MEAN_MOTION_DDOT":0}]
